     2.100          NAVIGATION                              RINEX VERSION / TYPE
fic2rin                                 03/15/2014 00:24:50 PGM / RUN BY / DATE
                                                            END OF HEADER
22 14  3 14 19 59 44.0  .219576060772D-03  .261479726760D-11  .000000000000D+00
     .160000000000D+02  .645312500000D+02  .556630328745D-08 -.452720054773D+00
     .345706939697D-05  .688668549992D-02  .756792724133D-05  .515372937775D+04
     .503984000000D+06 -.596046447754D-07  .717840488001D+00  .726431608200D-07
     .924064803420D+00  .216000000000D+03 -.206452287356D+01 -.868964767299D-08
     .568595112840D-09  .100000000000D+01  .178300000000D+04  .000000000000D+00
     .240000000000D+01  .000000000000D+00 -.172294676304D-07  .160000000000D+02
     .496806000000D+06  .400000000000D+01
 1 14  3 14 20  0  0.0  .402610749006D-05  .181898940355D-11  .000000000000D+00
     .940000000000D+02 -.465937500000D+02  .415731602604D-08  .260867809369D+01
    -.231340527534D-05  .280383089557D-02  .112578272820D-04  .515369088936D+04
     .504000000000D+06 -.372529029846D-07 -.319223314578D+00 -.204890966415D-07
     .961160072746D+00  .161781250000D+03  .343301145311D+00 -.786104172966D-08
    -.378587198248D-10  .100000000000D+01  .178300000000D+04  .000000000000D+00
     .240000000000D+01  .000000000000D+00  .651925802231D-08  .940000000000D+02
     .496806000000D+06  .400000000000D+01
 2 14  3 14 20  0  0.0  .483911484480D-03  .216004991671D-11  .000000000000D+00
     .440000000000D+02 -.600312500000D+02  .445911431144D-08 -.303903535218D+01
    -.309757888317D-05  .133299988229D-01  .124592334032D-04  .515358318329D+04
     .504000000000D+06 -.279396772385D-07 -.347190571961D+00 -.167638063431D-06
     .939673971090D+00  .125406250000D+03 -.246425736822D+01 -.783746931920D-08
    -.353586156854D-10  .100000000000D+01  .178300000000D+04  .000000000000D+00
     .240000000000D+01  .000000000000D+00 -.200234353542D-07  .440000000000D+02
     .496806000000D+06  .400000000000D+01
 3 14  3 14 20  0  0.0  .338209792972D-03  .511590769747D-11  .000000000000D+00
     .570000000000D+02 -.313750000000D+02  .522914638636D-08 -.284048519340D+01
    -.159256160259D-05  .167965571163D-01  .203028321266D-05  .515377340126D+04
     .504000000000D+06  .223517417908D-06 -.152120118174D+01 -.260770320892D-07
     .937169322213D+00  .326843750000D+03  .136899029900D+01 -.839856411962D-08
    -.100718481043D-09  .100000000000D+01  .178300000000D+04  .000000000000D+00
     .240000000000D+01  .000000000000D+00 -.465661287308D-08  .570000000000D+02
     .496806000000D+06  .400000000000D+01
 4 14  3 14 20  0  0.0  .610295683146D-05  .227373675443D-12  .000000000000D+00
     .790000000000D+02 -.507500000000D+02  .467269463649D-08  .363660655217D+00
    -.253133475780D-05  .105785807827D-01  .117979943752D-04  .515371431541D+04
     .504000000000D+06 -.219792127609D-06 -.331104958205D+00  .100582838058D-06
     .938701838619D+00  .143000000000D+03  .108223100914D+01 -.822748556494D-08
    -.118576367753D-09  .100000000000D+01  .178300000000D+04  .000000000000D+00
     .240000000000D+01  .000000000000D+00 -.605359673500D-08  .790000000000D+02
     .496806000000D+06  .400000000000D+01
 5 14  3 14 20  0  0.0 -.384320970625D-03  .181898940355D-11  .000000000000D+00
     .920000000000D+02  .655625000000D+02  .495949229705D-08 -.758023601423D+00
     .352226197720D-05  .358919578139D-02  .752881169319D-05  .515355254173D+04
     .504000000000D+06  .819563865662D-07  .719526762949D+00 -.931322574615D-08
     .947724589219D+00  .222687500000D+03  .343521207689D+00 -.835749098019D-08
     .611811198678D-09  .100000000000D+01  .178300000000D+04  .000000000000D+00
     .240000000000D+01  .000000000000D+00 -.102445483208D-07  .920000000000D+02
     .496806000000D+06  .400000000000D+01
 8 14  3 14 20  0  0.0  .123088248074D-04  .227373675443D-12  .000000000000D+00
     .530000000000D+02  .101562500000D+02  .360765027311D-08  .141621281915D+01
     .806525349617D-06  .135394337121D-01  .122599303722D-04  .515349496841D+04
     .504000000000D+06 -.260770320892D-07  .293896582343D+01  .199303030968D-06
     .997386927569D+00  .165531250000D+03 -.278554528446D+01 -.758638743206D-08
    -.350014579512D-09  .100000000000D+01  .178300000000D+04  .000000000000D+00
     .240000000000D+01  .000000000000D+00 -.419095158577D-08  .530000000000D+02
     .496806000000D+06  .400000000000D+01
 9 14  3 14 20  0  0.0  .312403310090D-03  .295585778076D-11  .000000000000D+00
     .390000000000D+02 -.796875000000D+01  .386873257681D-08  .309733914763D+01
    -.238418579102D-06  .169885609066D-01  .119172036648D-04  .515369349289D+04
     .504000000000D+06  .339001417160D-06  .282030544102D+01  .132247805595D-06
     .982709065251D+00  .156968750000D+03  .177684773700D+01 -.741566603511D-08
    -.281083136812D-09  .100000000000D+01  .178300000000D+04  .000000000000D+00
     .240000000000D+01  .000000000000D+00 -.605359673500D-08  .390000000000D+02
     .496806000000D+06  .400000000000D+01
10 14  3 14 20  0  0.0 -.118085648865D-03 -.147792889038D-11  .000000000000D+00
     .118000000000D+03  .645625000000D+02  .520414534497D-08 -.420177453803D+00
     .358559191227D-05  .134726637043D-01  .725127756596D-05  .515371298218D+04
     .504000000000D+06  .540167093277D-07  .737213047540D+00  .186264514923D-06
     .942511773227D+00  .232937500000D+03  .859039788855D+00 -.865250326863D-08
     .570738059245D-09  .100000000000D+01  .178300000000D+04  .000000000000D+00
     .240000000000D+01  .000000000000D+00 -.279396772385D-08  .118000000000D+03
     .496806000000D+06  .400000000000D+01
11 14  3 14 20  0  0.0 -.472090207040D-03 -.318323145621D-11  .000000000000D+00
     .115000000000D+03 -.910000000000D+02  .578702676718D-08  .219441436626D+01
    -.482983887196D-05  .148115904303D-01  .849738717079D-05  .515370676994D+04
     .504000000000D+06  .167638063431D-06 -.637635110462D+00 -.257045030594D-06
     .890374575401D+00  .176906250000D+03  .126847630063D+01 -.855678499587D-08
    -.228938107620D-09  .100000000000D+01  .178300000000D+04  .000000000000D+00
     .240000000000D+01  .000000000000D+00 -.116415321827D-07  .115000000000D+03
     .496806000000D+06  .400000000000D+01
12 14  3 14 20  0  0.0  .192168634385D-03  .238742359215D-11  .000000000000D+00
     .120000000000D+02  .904375000000D+02  .405266880992D-08  .162452538137D+01
     .470504164696D-05  .496170169208D-02  .702030956745D-05  .515366189384D+04
     .504000000000D+06 -.316649675369D-07 -.238054531753D+01  .745058059692D-07
     .986967973806D+00  .257312500000D+03  .359249402762D+00 -.797961809741D-08
     .302869758598D-09  .100000000000D+01  .178300000000D+04  .000000000000D+00
     .240000000000D+01  .000000000000D+00 -.121071934700D-07  .120000000000D+02
     .496806000000D+06  .400000000000D+01
13 14  3 14 20  0  0.0  .202185474336D-04 -.386535248253D-11  .000000000000D+00
     .590000000000D+02 -.418750000000D+02  .458519099161D-08 -.192798152582D+01
    -.202842056751D-05  .530699396040D-02  .554323196411D-05  .515361492538D+04
     .504000000000D+06 -.124797224998D-06  .187631957009D+01  .875443220139D-07
     .977934874524D+00  .286125000000D+03  .220289270652D+01 -.810140888477D-08
    -.304298389535D-09  .100000000000D+01  .178300000000D+04  .000000000000D+00
     .240000000000D+01  .000000000000D+00 -.111758708954D-07  .590000000000D+02
     .496806000000D+06  .400000000000D+01
14 14  3 14 20  0  0.0  .190500169992D-03 -.329691829393D-11  .000000000000D+00
     .210000000000D+02 -.439062500000D+02  .478341353409D-08 -.161086817213D+01
    -.213645398617D-05  .728570215870D-02  .479631125927D-05  .515362525940D+04
     .504000000000D+06  .158324837685D-06  .184496842812D+01  .800937414169D-07
     .970511485447D+00  .291156250000D+03 -.199526800107D+01 -.818605526777D-08
    -.279654505876D-09  .100000000000D+01  .178300000000D+04  .000000000000D+00
     .240000000000D+01  .000000000000D+00 -.884756445885D-08  .210000000000D+02
     .496806000000D+06  .400000000000D+01
15 14  3 14 20  0  0.0 -.168211292475D-03 -.216004991671D-11  .000000000000D+00
     .890000000000D+02 -.355312500000D+02  .563987778069D-08 -.219876360854D+01
    -.205077230930D-05  .622960261535D-02  .415369868279D-05  .515365231514D+04
     .504000000000D+06  .260770320892D-07  .173533717903D+01 -.141561031342D-06
     .937085031799D+00  .288312500000D+03  .266078063791D+00 -.870286250916D-08
    -.173935816553D-09  .100000000000D+01  .178300000000D+04  .000000000000D+00
     .240000000000D+01  .000000000000D+00 -.102445483208D-07  .890000000000D+02
     .496806000000D+06  .400000000000D+01
16 14  3 14 20  0  0.0 -.227746088058D-03  .159161572810D-11  .000000000000D+00
     .860000000000D+02  .769687500000D+02  .398909473324D-08 -.572558453426D+00
     .396929681301D-05  .763205578551D-02  .650994479656D-05  .515355082512D+04
     .504000000000D+06  .135973095894D-06 -.236202337317D+01 -.931322574615D-08
     .987574166097D+00  .269062500000D+03  .156339857828D+00 -.796676041898D-08
     .273939982128D-09  .100000000000D+01  .178300000000D+04  .000000000000D+00
     .240000000000D+01  .000000000000D+00 -.977888703346D-08  .860000000000D+02
     .496806000000D+06  .400000000000D+01
18 14  3 14 20  0  0.0  .307247042656D-03  .216004991671D-11  .000000000000D+00
     .490000000000D+02  .659687500000D+02  .557523223080D-08  .969060152216D-01
     .346079468727D-05  .148761876626D-01  .766664743423D-05  .515367573547D+04
     .504000000000D+06 -.143423676491D-06  .715813879790D+00  .162050127983D-06
     .926296716091D+00  .217062500000D+03 -.205443501327D+01 -.883501087081D-08
     .545022702383D-09  .100000000000D+01  .178300000000D+04  .000000000000D+00
     .240000000000D+01  .000000000000D+00 -.107102096081D-07  .490000000000D+02
     .496806000000D+06  .400000000000D+01
